{"type":"FeatureCollection","city":{"slug":"novi-sad","name":{"sr-Cyrl":"Нови Сад","sr-Latn":"Novi Sad","ru":"Нови-Сад","en":"Novi Sad"}},"attribution":"© OpenStreetMap contributors, ODbL 1.0 (https://www.openstreetmap.org/copyright)","features":[
{"type":"Feature","properties":{"slug":"novi-sad","kind":"municipality","parent":null,"name":{"sr-Cyrl":"Нови Сад","sr-Latn":"Novi Sad","ru":"Нови-Сад","en":"Novi Sad"},"aliases":[],"center":[19.843663,45.271943],"source":"osm:relation/9273976"},"geometry":{"type":"MultiPolygon","coordinates":[[[[19.903717,45.290443],[19.906795,45.289372],[19.906949,45.289392],[19.908136,45.287896],[19.908862,45.286846],[19.911184,45.284248],[19.915185,45.279486],[19.917117,45.276394],[19.918044,45.272515],[19.918386,45.271371],[19.918605,45.270955],[19.919481,45.270337],[19.921398,45.269998],[19.922797,45.269573],[19.929617,45.266673],[19.930438,45.265599],[19.930775,45.264655],[19.930997,45.263315],[19.931444,45.262981],[19.931381,45.262823],[19.931529,45.26178],[19.931645,45.259949],[19.931622,45.259172],[19.931551,45.258431],[19.931252,45.257448],[19.930382,45.255695],[19.928371,45.253205],[19.926177,45.251031],[19.92331,45.248733],[19.923032,45.248132],[19.922586,45.248072],[19.922097,45.248332],[19.922112,45.248811],[19.916196,45.246381],[19.911845,45.249848],[19.903945,45.252612],[19.902987,45.253297],[19.901968,45.253679],[19.900493,45.254473],[19.899637,45.254816],[19.898076,45.255622],[19.89695,45.256343],[19.895493,45.256844],[19.891571,45.258422],[19.890899,45.258781],[19.887386,45.260043],[19.88642,45.26046],[19.885668,45.260568],[19.884881,45.261002],[19.884304,45.261209],[19.878912,45.262734],[19.877151,45.263141],[19.874386,45.263644],[19.870012,45.264071],[19.867658,45.264146],[19.866053,45.263932],[19.864327,45.263473],[19.863761,45.263203],[19.863454,45.262875],[19.860441,45.26111],[19.859021,45.260512],[19.858136,45.259639],[19.857602,45.258961],[19.857307,45.258268],[19.856938,45.257244],[19.85696,45.256752],[19.857367,45.254898],[19.857453,45.254769],[19.857578,45.253851],[19.857796,45.253365],[19.858106,45.252036],[19.858261,45.251723],[19.85814,45.251032],[19.858493,45.250439],[19.858765,45.250231],[19.859208,45.249622],[19.859485,45.248712],[19.859655,45.248477],[19.860171,45.247152],[19.860118,45.246638],[19.860209,45.245477],[19.860189,45.244623],[19.860031,45.243903],[19.859207,45.242149],[19.858014,45.240394],[19.856025,45.238727],[19.853077,45.23642],[19.852736,45.236265],[19.849672,45.233885],[19.846597,45.23183],[19.845254,45.231089],[19.844178,45.230634],[19.842847,45.230186],[19.838504,45.228491],[19.836078,45.227308],[19.834919,45.226474],[19.833719,45.225846],[19.832591,45.225315],[19.830965,45.224732],[19.818894,45.222428],[19.813327,45.221257],[19.812915,45.223154],[19.812257,45.222953],[19.808836,45.22227],[19.807748,45.222293],[19.806995,45.222514],[19.806586,45.222497],[19.806109,45.222647],[19.805692,45.222929],[19.803243,45.223868],[19.802919,45.22414],[19.801615,45.224436],[19.800614,45.224594],[19.800315,45.224602],[19.800355,45.2245],[19.799059,45.224582],[19.797313,45.225134],[19.796842,45.225161],[19.795597,45.225428],[19.792548,45.225681],[19.791957,45.225516],[19.790973,45.2258],[19.789166,45.226162],[19.788956,45.226267],[19.78886,45.226198],[19.788872,45.226274],[19.787987,45.226461],[19.78609,45.226664],[19.782509,45.227495],[19.781385,45.227593],[19.781002,45.227722],[19.780042,45.22786],[19.774839,45.228297],[19.773073,45.228562],[19.770702,45.229113],[19.768387,45.229525],[19.76594,45.229886],[19.763986,45.230076],[19.764169,45.230914],[19.765536,45.233423],[19.772786,45.240218],[19.772551,45.240402],[19.774023,45.241605],[19.774179,45.241852],[19.774268,45.242257],[19.774728,45.244918],[19.77791,45.24367],[19.783262,45.243394],[19.787094,45.243088],[19.787527,45.2431],[19.787588,45.24323],[19.787631,45.243363],[19.78749,45.243319],[19.78737,45.244277],[19.785317,45.246396],[19.784873,45.247158],[19.784723,45.247571],[19.78503,45.249983],[19.785041,45.250988],[19.78481,45.251786],[19.784519,45.252219],[19.784371,45.252913],[19.783553,45.253993],[19.781128,45.25618],[19.77827,45.259762],[19.777881,45.260141],[19.781889,45.262982],[19.776555,45.266127],[19.776382,45.26622],[19.776172,45.266035],[19.767803,45.270791],[19.779391,45.280992],[19.779694,45.28134],[19.779997,45.28152],[19.78573,45.280482],[19.786726,45.282961],[19.787262,45.284668],[19.788251,45.287371],[19.783236,45.293849],[19.783707,45.294046],[19.783622,45.294497],[19.783663,45.295205],[19.783914,45.296024],[19.784259,45.296726],[19.784915,45.297493],[19.785773,45.298162],[19.786828,45.298742],[19.791901,45.301013],[19.794162,45.302537],[19.794599,45.302246],[19.795576,45.302672],[19.795964,45.304744],[19.801061,45.305322],[19.800664,45.313313],[19.801149,45.316761],[19.80112,45.317012],[19.810059,45.317936],[19.810454,45.318078],[19.813771,45.315217],[19.815372,45.314029],[19.816456,45.313348],[19.818977,45.312112],[19.819355,45.312165],[19.820017,45.313287],[19.820497,45.313728],[19.820894,45.313959],[19.823454,45.315114],[19.823566,45.31527],[19.823722,45.315226],[19.828125,45.317261],[19.828696,45.317431],[19.828865,45.317333],[19.829235,45.31535],[19.82961,45.313944],[19.829693,45.313008],[19.82962,45.312614],[19.829735,45.311713],[19.829088,45.311297],[19.828872,45.310924],[19.829928,45.311463],[19.830608,45.310277],[19.831004,45.311598],[19.831784,45.313524],[19.833139,45.317441],[19.833574,45.318239],[19.833984,45.318726],[19.834877,45.319392],[19.835332,45.319846],[19.83696,45.320894],[19.837212,45.320884],[19.837233,45.320798],[19.84027,45.321896],[19.844616,45.321204],[19.846729,45.320006],[19.850926,45.31909],[19.855983,45.318142],[19.859558,45.317019],[19.861784,45.314787],[19.863217,45.314133],[19.863068,45.313897],[19.863106,45.31379],[19.865122,45.309464],[19.865465,45.308584],[19.869799,45.308292],[19.872257,45.303236],[19.875624,45.296748],[19.87993,45.294342],[19.883334,45.294583],[19.885186,45.294169],[19.889566,45.293634],[19.890199,45.293588],[19.893415,45.293661],[19.897128,45.293421],[19.897791,45.293201],[19.899853,45.291954],[19.902187,45.290963],[19.903484,45.290461],[19.903717,45.290443]]]]}},
{"type":"Feature","properties":{"slug":"stari-grad","kind":"neighborhood","parent":"novi-sad","name":{"sr-Cyrl":"Стари град","sr-Latn":"Stari grad","ru":"Старый город","en":"Stari grad"},"aliases":["Центр","Centar","Центар"],"center":[19.847518,45.253076],"source":"osm:relation/11607351"},"geometry":{"type":"MultiPolygon","coordinates":[[[[19.843152,45.261055],[19.844759,45.26069],[19.845243,45.260899],[19.846393,45.260002],[19.84645,45.259952],[19.845163,45.258999],[19.846775,45.257932],[19.847418,45.258625],[19.848154,45.258293],[19.849865,45.257872],[19.85455,45.257257],[19.855677,45.250383],[19.855536,45.250058],[19.855259,45.249734],[19.849774,45.247953],[19.849,45.247538],[19.8467,45.245263],[19.841596,45.243887],[19.83709,45.251924],[19.84251,45.254227],[19.841575,45.255836],[19.841674,45.257113],[19.841832,45.25777],[19.842583,45.259461],[19.842492,45.260425],[19.843152,45.261055]]]]}},
{"type":"Feature","properties":{"slug":"liman-1","kind":"neighborhood","parent":"novi-sad","name":{"sr-Cyrl":"Лиман 1","sr-Latn":"Liman 1","ru":"Лиман 1","en":"Liman 1"},"aliases":[],"center":[19.851727,45.243057],"source":"osm:relation/11607228"},"geometry":{"type":"MultiPolygon","coordinates":[[[[19.855766,45.249735],[19.856264,45.24981],[19.856479,45.245912],[19.856221,45.243872],[19.855577,45.242241],[19.854419,45.240654],[19.852552,45.23931],[19.850406,45.237557],[19.848872,45.236454],[19.848327,45.237725],[19.847989,45.240404],[19.84724,45.244983],[19.847365,45.24537],[19.849049,45.247403],[19.849558,45.247725],[19.855766,45.249735]]]]}},
{"type":"Feature","properties":{"slug":"liman-2","kind":"neighborhood","parent":"novi-sad","name":{"sr-Cyrl":"Лиман 2","sr-Latn":"Liman 2","ru":"Лиман 2","en":"Liman 2"},"aliases":[],"center":[19.845916,45.239679],"source":"osm:relation/11607227"},"geometry":{"type":"MultiPolygon","coordinates":[[[[19.841456,45.243804],[19.846536,45.245016],[19.846758,45.244992],[19.847045,45.244796],[19.848178,45.237678],[19.848608,45.23681],[19.847186,45.235874],[19.84496,45.238156],[19.842985,45.241203],[19.841456,45.243804]]]]}},
{"type":"Feature","properties":{"slug":"liman-3","kind":"neighborhood","parent":"novi-sad","name":{"sr-Cyrl":"Лиман 3","sr-Latn":"Liman 3","ru":"Лиман 3","en":"Liman 3"},"aliases":[],"center":[19.837775,45.23977],"source":"osm:relation/11607225"},"geometry":{"type":"MultiPolygon","coordinates":[[[[19.831152,45.241309],[19.841295,45.243689],[19.844452,45.238231],[19.845797,45.236586],[19.847347,45.235323],[19.845353,45.234375],[19.84447,45.234416],[19.843891,45.234758],[19.843069,45.234968],[19.841313,45.235074],[19.840454,45.235008],[19.839763,45.23485],[19.83797,45.234179],[19.837353,45.234034],[19.837335,45.233913],[19.836733,45.233796],[19.836139,45.233942],[19.835317,45.233863],[19.835037,45.234153],[19.831152,45.241309]]]]}},
{"type":"Feature","properties":{"slug":"liman-4","kind":"neighborhood","parent":"novi-sad","name":{"sr-Cyrl":"Лиман 4","sr-Latn":"Liman 4","ru":"Лиман 4","en":"Liman 4"},"aliases":[],"center":[19.829729,45.237458],"source":"osm:relation/11607226"},"geometry":{"type":"MultiPolygon","coordinates":[[[[19.825188,45.239651],[19.831015,45.241258],[19.834994,45.233826],[19.834695,45.233905],[19.831464,45.233471],[19.829147,45.232985],[19.829129,45.23284],[19.827093,45.232445],[19.825934,45.2348],[19.827628,45.235264],[19.825188,45.239651]]]]}},
{"type":"Feature","properties":{"slug":"grbavica","kind":"neighborhood","parent":"novi-sad","name":{"sr-Cyrl":"Грбавица","sr-Latn":"Grbavica","ru":"Грбавица","en":"Grbavica"},"aliases":[],"center":[19.83354,45.246342],"source":"osm:relation/11607349"},"geometry":{"type":"MultiPolygon","coordinates":[[[[19.836926,45.251844],[19.83917,45.247936],[19.841322,45.243899],[19.827526,45.240501],[19.826225,45.243056],[19.826234,45.244224],[19.82632,45.244749],[19.828342,45.249105],[19.831204,45.249273],[19.832813,45.249734],[19.836926,45.251844]]]]}},
{"type":"Feature","properties":{"slug":"adamovicevo-naselje","kind":"neighborhood","parent":"novi-sad","name":{"sr-Cyrl":"Адамовићево насеље","sr-Latn":"Adamovićevo naselje","ru":"Адамовичево населье","en":"Adamovićevo naselje"},"aliases":[],"center":[19.822591,45.246518],"source":"osm:relation/11607350"},"geometry":{"type":"MultiPolygon","coordinates":[[[[19.816734,45.248623],[19.817992,45.248867],[19.820366,45.24913],[19.822057,45.249222],[19.823911,45.249268],[19.825212,45.249153],[19.828101,45.249066],[19.826123,45.244413],[19.826172,45.243097],[19.827407,45.240543],[19.824464,45.239764],[19.823842,45.239703],[19.823196,45.239753],[19.822578,45.240016],[19.816734,45.248623]]]]}},
{"type":"Feature","properties":{"slug":"bistrica","kind":"neighborhood","parent":"novi-sad","name":{"sr-Cyrl":"Бистрица","sr-Latn":"Bistrica","ru":"Бистрица","en":"Bistrica"},"aliases":["Новое поселение","Novo naselje","Ново насеље"],"center":[19.799727,45.251414],"source":"osm:relation/11607343"},"geometry":{"type":"MultiPolygon","coordinates":[[[[19.808311,45.260101],[19.8164,45.248693],[19.814087,45.248158],[19.813281,45.248042],[19.807734,45.247627],[19.807249,45.248786],[19.806167,45.249482],[19.804406,45.250889],[19.803476,45.250573],[19.802047,45.250889],[19.801921,45.251096],[19.801743,45.251034],[19.802795,45.249437],[19.800867,45.248761],[19.799289,45.251072],[19.798813,45.250291],[19.798138,45.250048],[19.79748,45.251004],[19.791992,45.249174],[19.794801,45.244662],[19.793083,45.24411],[19.793121,45.244048],[19.791344,45.243494],[19.790579,45.243367],[19.789803,45.24331],[19.787582,45.243388],[19.78746,45.244251],[19.785219,45.246579],[19.78483,45.247502],[19.785405,45.248517],[19.785049,45.249314],[19.785207,45.250653],[19.784891,45.251732],[19.78475,45.251984],[19.808311,45.260101]]]]}},
{"type":"Feature","properties":{"slug":"detelinara","kind":"neighborhood","parent":"novi-sad","name":{"sr-Cyrl":"Детелинара","sr-Latn":"Detelinara","ru":"Детелинара","en":"Detelinara"},"aliases":[],"center":[19.815233,45.25993],"source":"osm:relation/11607345"},"geometry":{"type":"MultiPolygon","coordinates":[[[[19.822716,45.258915],[19.82126,45.258789],[19.821266,45.258339],[19.819607,45.256507],[19.818046,45.255362],[19.813969,45.25277],[19.813484,45.253278],[19.812992,45.254129],[19.812431,45.25481],[19.811472,45.256244],[19.811227,45.256684],[19.811435,45.256749],[19.811317,45.256926],[19.811075,45.256974],[19.808019,45.261351],[19.80787,45.261317],[19.806791,45.262867],[19.806668,45.263406],[19.806632,45.263956],[19.806697,45.264291],[19.807121,45.264964],[19.807845,45.265558],[19.808202,45.265736],[19.809763,45.266215],[19.811803,45.267278],[19.812649,45.267561],[19.815811,45.265146],[19.815578,45.265022],[19.818224,45.262746],[19.818479,45.262649],[19.820667,45.26074],[19.820588,45.260697],[19.822341,45.259145],[19.8225,45.259163],[19.822716,45.258915]]]]}},
{"type":"Feature","properties":{"slug":"telep","kind":"neighborhood","parent":"novi-sad","name":{"sr-Cyrl":"Телеп","sr-Latn":"Telep","ru":"Телеп","en":"Telep"},"aliases":[],"center":[19.811411,45.239064],"source":"osm:relation/11607340"},"geometry":{"type":"MultiPolygon","coordinates":[[[[19.787657,45.2432],[19.788709,45.243123],[19.791334,45.243313],[19.803715,45.247105],[19.806515,45.247422],[19.813215,45.247893],[19.814144,45.248021],[19.816499,45.248551],[19.82249,45.239702],[19.824441,45.239256],[19.823802,45.238443],[19.823909,45.238381],[19.823787,45.238062],[19.823907,45.237051],[19.824231,45.23672],[19.824558,45.236541],[19.825173,45.236416],[19.825561,45.235653],[19.825576,45.235498],[19.825441,45.235228],[19.826803,45.232616],[19.826052,45.232359],[19.823799,45.232464],[19.818756,45.231135],[19.81468,45.230379],[19.811096,45.229896],[19.806976,45.229926],[19.806955,45.231377],[19.806719,45.232192],[19.805517,45.233371],[19.80468,45.234731],[19.803135,45.235668],[19.801977,45.237315],[19.800947,45.238343],[19.799509,45.238871],[19.796591,45.239446],[19.789038,45.2415],[19.787983,45.242183],[19.787657,45.2432]]]]}},
{"type":"Feature","properties":{"slug":"klisa","kind":"neighborhood","parent":"novi-sad","name":{"sr-Cyrl":"Клиса","sr-Latn":"Klisa","ru":"Клиса","en":"Klisa"},"aliases":[],"center":[19.821705,45.292786],"source":"osm:relation/11607356"},"geometry":{"type":"MultiPolygon","coordinates":[[[[19.830364,45.306662],[19.830486,45.293707],[19.823743,45.291967],[19.826552,45.283781],[19.828163,45.27957],[19.826921,45.279986],[19.825606,45.281612],[19.824986,45.281983],[19.823779,45.281987],[19.821141,45.281485],[19.820167,45.28168],[19.819738,45.287322],[19.818982,45.287309],[19.815217,45.287861],[19.816204,45.290776],[19.816252,45.291865],[19.81671,45.293604],[19.81691,45.295373],[19.817339,45.296761],[19.818004,45.297924],[19.818305,45.299086],[19.818476,45.302618],[19.819037,45.306402],[19.830364,45.306662]]]]}},
{"type":"Feature","properties":{"slug":"podbara","kind":"neighborhood","parent":"novi-sad","name":{"sr-Cyrl":"Подбара","sr-Latn":"Podbara","ru":"Подбара","en":"Podbara"},"aliases":[],"center":[19.850283,45.262859],"source":"osm:relation/11607352"},"geometry":{"type":"MultiPolygon","coordinates":[[[[19.84392,45.265458],[19.843307,45.267439],[19.843367,45.267625],[19.843538,45.267668],[19.848507,45.267518],[19.850034,45.267014],[19.850903,45.266546],[19.851589,45.266043],[19.853582,45.264846],[19.854628,45.264008],[19.856265,45.263273],[19.857779,45.262446],[19.85727,45.261848],[19.85618,45.260104],[19.855401,45.258151],[19.855221,45.257275],[19.853292,45.257453],[19.849852,45.257932],[19.848662,45.258181],[19.847417,45.258669],[19.84678,45.257972],[19.845888,45.258609],[19.845163,45.258999],[19.84645,45.259952],[19.845243,45.260899],[19.844759,45.26069],[19.843155,45.261091],[19.84341,45.261928],[19.84392,45.265458]]]]}},
{"type":"Feature","properties":{"slug":"salajka","kind":"neighborhood","parent":"novi-sad","name":{"sr-Cyrl":"Салајка","sr-Latn":"Salajka","ru":"Салайка","en":"Salajka"},"aliases":[],"center":[19.836367,45.271455],"source":"osm:relation/11607353"},"geometry":{"type":"MultiPolygon","coordinates":[[[[19.828627,45.278385],[19.83941,45.275833],[19.8409,45.273481],[19.843851,45.265404],[19.843375,45.261946],[19.842959,45.260665],[19.842875,45.260643],[19.840123,45.262439],[19.832323,45.268263],[19.831816,45.269429],[19.828627,45.278385]]]]}},
{"type":"Feature","properties":{"slug":"rotkvarija","kind":"neighborhood","parent":"novi-sad","name":{"sr-Cyrl":"Роткварија","sr-Latn":"Rotkvarija","ru":"Ротквария","en":"Rotkvarija"},"aliases":[],"center":[19.837516,45.258634],"source":"osm:relation/11607348"},"geometry":{"type":"MultiPolygon","coordinates":[[[[19.835987,45.253015],[19.830113,45.263537],[19.829919,45.26384],[19.829832,45.263864],[19.830775,45.264115],[19.835085,45.265921],[19.840583,45.261917],[19.842836,45.260489],[19.842893,45.260372],[19.8428,45.260109],[19.841563,45.257159],[19.841384,45.256954],[19.84142,45.256439],[19.84129,45.25571],[19.841421,45.255674],[19.841722,45.254872],[19.842153,45.25426],[19.841007,45.253685],[19.838873,45.252993],[19.836863,45.252034],[19.835987,45.253015]]]]}},
{"type":"Feature","properties":{"slug":"satelit","kind":"neighborhood","parent":"novi-sad","name":{"sr-Cyrl":"Сателит","sr-Latn":"Satelit","ru":"Сателит","en":"Satelit"},"aliases":[],"center":[19.800002,45.248158],"source":"osm:relation/11607342"},"geometry":{"type":"MultiPolygon","coordinates":[[[[19.79252,45.248714],[19.792553,45.249015],[19.79696,45.250533],[19.797298,45.250475],[19.797745,45.249803],[19.798908,45.25023],[19.799276,45.250859],[19.8008,45.248586],[19.80296,45.249342],[19.801949,45.250836],[19.803493,45.250511],[19.804329,45.250798],[19.806913,45.248771],[19.807281,45.247729],[19.804259,45.247493],[19.795143,45.244759],[19.795023,45.244791],[19.79252,45.248714]]]]}},
{"type":"Feature","properties":{"slug":"sajmiste","kind":"neighborhood","parent":"novi-sad","name":{"sr-Cyrl":"Сајмиште","sr-Latn":"Sajmište","ru":"Саймиште","en":"Sajmište"},"aliases":[],"center":[19.825779,45.254188],"source":"osm:relation/11607344"},"geometry":{"type":"MultiPolygon","coordinates":[[[[19.81405,45.252787],[19.818046,45.255362],[19.819607,45.256507],[19.821266,45.258339],[19.82126,45.258789],[19.823515,45.258936],[19.826216,45.259299],[19.829855,45.259524],[19.83003,45.259718],[19.829991,45.259844],[19.831885,45.26037],[19.835987,45.253015],[19.836863,45.252034],[19.833365,45.2502],[19.831696,45.24961],[19.830647,45.249327],[19.827333,45.249212],[19.824618,45.249428],[19.820949,45.249401],[19.816909,45.248909],[19.816774,45.248717],[19.816575,45.248661],[19.815765,45.249843],[19.815117,45.25097],[19.813939,45.252619],[19.81405,45.252787]]]]}},
{"type":"Feature","properties":{"slug":"sajlovo","kind":"neighborhood","parent":"novi-sad","name":{"sr-Cyrl":"Сајлово","sr-Latn":"Sajlovo","ru":"Сайлово","en":"Sajlovo"},"aliases":[],"center":[19.785689,45.273575],"source":"osm:relation/13798643"},"geometry":{"type":"MultiPolygon","coordinates":[[[[19.787262,45.284668],[19.787281,45.284588],[19.787593,45.28458],[19.790924,45.283879],[19.791216,45.283684],[19.791551,45.283315],[19.791695,45.283579],[19.792482,45.283167],[19.792498,45.283219],[19.800526,45.278723],[19.801445,45.278073],[19.800613,45.275659],[19.800191,45.275309],[19.801121,45.274835],[19.80049,45.274015],[19.800332,45.273136],[19.800422,45.27259],[19.80058,45.272216],[19.801849,45.270346],[19.802687,45.269483],[19.801753,45.269178],[19.79787,45.270609],[19.796819,45.269771],[19.794363,45.268058],[19.790387,45.264978],[19.787379,45.266967],[19.785813,45.265918],[19.784547,45.264992],[19.784106,45.264574],[19.781889,45.262982],[19.776555,45.266127],[19.776382,45.26622],[19.776172,45.266035],[19.767803,45.270791],[19.779391,45.280992],[19.779694,45.28134],[19.779997,45.28152],[19.78573,45.280482],[19.786726,45.282961],[19.787262,45.284668]]]]}},
{"type":"Feature","properties":{"slug":"slana-bara","kind":"neighborhood","parent":"novi-sad","name":{"sr-Cyrl":"Слана бара","sr-Latn":"Slana bara","ru":"Слана бара","en":"Slana Bara"},"aliases":[],"center":[19.828721,45.287771],"source":"osm:relation/11607357"},"geometry":{"type":"MultiPolygon","coordinates":[[[[19.824039,45.292029],[19.830495,45.293673],[19.830495,45.290605],[19.833439,45.284938],[19.826823,45.283777],[19.824039,45.292029]]]]}},
{"type":"Feature","properties":{"slug":"adice","kind":"neighborhood","parent":"novi-sad","name":{"sr-Cyrl":"Адице","sr-Latn":"Adice","ru":"Адице","en":"Adice"},"aliases":[],"center":[19.785611,45.23651],"source":"osm:relation/11607341"},"geometry":{"type":"MultiPolygon","coordinates":[[[[19.774817,45.245039],[19.777906,45.243921],[19.787369,45.243241],[19.788034,45.242032],[19.788978,45.241503],[19.796532,45.239403],[19.799107,45.23892],[19.800823,45.238346],[19.801939,45.237288],[19.803098,45.235686],[19.804035,45.235106],[19.804621,45.234644],[19.805115,45.233722],[19.806359,45.232483],[19.80666,45.231757],[19.806724,45.229899],[19.803244,45.229924],[19.792927,45.228236],[19.792283,45.228297],[19.785073,45.229702],[19.774924,45.229158],[19.768765,45.229974],[19.764097,45.2308],[19.765676,45.233797],[19.767907,45.235732],[19.774301,45.241851],[19.774817,45.245039]]]]}},
{"type":"Feature","properties":{"slug":"banatic","kind":"neighborhood","parent":"novi-sad","name":{"sr-Cyrl":"Банатић","sr-Latn":"Banatić","ru":"Банатич","en":"Banatic"},"aliases":[],"center":[19.824951,45.262138],"source":"osm:relation/11607347"},"geometry":{"type":"MultiPolygon","coordinates":[[[[19.822716,45.258915],[19.8225,45.259163],[19.822341,45.259145],[19.820588,45.260697],[19.820667,45.26074],[19.816719,45.264071],[19.819122,45.265499],[19.819502,45.265315],[19.819636,45.265361],[19.820595,45.265065],[19.822175,45.264931],[19.823068,45.26498],[19.826145,45.265539],[19.827459,45.265948],[19.830134,45.26643],[19.83019,45.266655],[19.831253,45.266617],[19.831376,45.266875],[19.833494,45.267033],[19.835085,45.265921],[19.830775,45.264115],[19.829832,45.263864],[19.829919,45.26384],[19.830113,45.263537],[19.83188,45.260368],[19.829991,45.259844],[19.83003,45.259718],[19.829855,45.259524],[19.826216,45.259299],[19.823515,45.258936],[19.822716,45.258915]]]]}},
{"type":"Feature","properties":{"slug":"vidovdansko-naselje","kind":"neighborhood","parent":"novi-sad","name":{"sr-Cyrl":"Видовданско насеље","sr-Latn":"Vidovdansko naselje","ru":"Видовданско населье","en":"Vidovdansko naselje"},"aliases":[],"center":[19.832682,45.280696],"source":"osm:relation/11607358"},"geometry":{"type":"MultiPolygon","coordinates":[[[[19.83343,45.284901],[19.834353,45.283451],[19.836016,45.283602],[19.836155,45.283248],[19.837507,45.281073],[19.838065,45.280318],[19.83858,45.279405],[19.839942,45.276438],[19.828033,45.279413],[19.826553,45.283587],[19.83343,45.284901]]]]}},
{"type":"Feature","properties":{"slug":"avijaticarsko-naselje","kind":"neighborhood","parent":"novi-sad","name":{"sr-Cyrl":"Авијатичарско насеље","sr-Latn":"Avijatičarsko naselje","ru":"Авиятичарско населье","en":"Avijaticarsko naselje"},"aliases":[],"center":[19.807389,45.268448],"source":"osm:relation/11607346"},"geometry":{"type":"MultiPolygon","coordinates":[[[[19.812649,45.267561],[19.811803,45.267278],[19.809763,45.266215],[19.808202,45.265736],[19.807641,45.265421],[19.807121,45.264964],[19.806697,45.264291],[19.806632,45.263956],[19.806668,45.263406],[19.802721,45.269334],[19.802687,45.269483],[19.801849,45.270346],[19.80058,45.272216],[19.800422,45.27259],[19.800332,45.273136],[19.80049,45.274015],[19.80065,45.274299],[19.801348,45.275059],[19.804849,45.273269],[19.806604,45.272096],[19.812649,45.267561]]]]}},
{"type":"Feature","properties":{"slug":"jugovicevo","kind":"neighborhood","parent":"novi-sad","name":{"sr-Cyrl":"Југовићево","sr-Latn":"Jugovićevo","ru":"Юговичево","en":"Jugovicevo"},"aliases":[],"center":[19.793992,45.26214],"source":"osm:relation/11607398"},"geometry":{"type":"MultiPolygon","coordinates":[[[[19.777881,45.260141],[19.784106,45.264574],[19.784547,45.264992],[19.785813,45.265918],[19.787379,45.266967],[19.790387,45.264978],[19.794363,45.268058],[19.796819,45.269771],[19.79787,45.270609],[19.801753,45.269178],[19.802687,45.269483],[19.802721,45.269334],[19.806668,45.263406],[19.806791,45.262867],[19.80787,45.261317],[19.806496,45.261011],[19.806507,45.261098],[19.806287,45.261412],[19.793473,45.256982],[19.793982,45.256791],[19.794798,45.256239],[19.795073,45.255836],[19.787223,45.253139],[19.785515,45.252783],[19.784422,45.25267],[19.78427,45.25307],[19.783553,45.253993],[19.781128,45.25618],[19.77827,45.259762],[19.777881,45.260141]]]]}},
{"type":"Feature","properties":{"slug":"petrovaradin","kind":"neighborhood","parent":null,"name":{"sr-Cyrl":"Петроварадин","sr-Latn":"Petrovaradin","ru":"Петроварадин","en":"Petrovaradin"},"aliases":[],"center":[19.885481,45.232909],"source":"osm:relation/9274232"},"geometry":{"type":"MultiPolygon","coordinates":[[[[19.897817,45.20588],[19.897215,45.206284],[19.896393,45.206355],[19.892696,45.205485],[19.887537,45.204073],[19.880674,45.203723],[19.877141,45.203619],[19.87271,45.202755],[19.871946,45.203021],[19.870829,45.203595],[19.867912,45.207063],[19.867393,45.208902],[19.867113,45.209656],[19.866699,45.210347],[19.866279,45.210805],[19.865718,45.211186],[19.865762,45.21161],[19.865706,45.211711],[19.864726,45.212755],[19.864793,45.212811],[19.86473,45.212905],[19.864314,45.213307],[19.862139,45.216171],[19.86286,45.217214],[19.86476,45.220993],[19.863463,45.224825],[19.856536,45.228288],[19.854278,45.22952],[19.854064,45.22952],[19.853496,45.229761],[19.852787,45.230671],[19.85257,45.2307],[19.851917,45.231349],[19.851548,45.231933],[19.849672,45.233885],[19.852736,45.236265],[19.853077,45.23642],[19.854353,45.237396],[19.858014,45.240394],[19.859207,45.242149],[19.860031,45.243903],[19.860189,45.244623],[19.860209,45.245477],[19.860118,45.246638],[19.860171,45.247152],[19.859655,45.248477],[19.859485,45.248712],[19.859208,45.249622],[19.858765,45.250231],[19.858493,45.250439],[19.85814,45.251032],[19.858261,45.251723],[19.858106,45.252036],[19.857796,45.253365],[19.857578,45.253851],[19.857453,45.254769],[19.857367,45.254898],[19.85696,45.256752],[19.856938,45.257244],[19.857602,45.258961],[19.858136,45.259639],[19.859021,45.260512],[19.860441,45.26111],[19.863454,45.262875],[19.863761,45.263203],[19.864327,45.263473],[19.866053,45.263932],[19.867658,45.264146],[19.870012,45.264071],[19.874386,45.263644],[19.877151,45.263141],[19.878912,45.262734],[19.884304,45.261209],[19.884881,45.261002],[19.885668,45.260568],[19.88642,45.26046],[19.887386,45.260043],[19.890899,45.258781],[19.891571,45.258422],[19.895493,45.256844],[19.89695,45.256343],[19.898076,45.255622],[19.899637,45.254816],[19.900493,45.254473],[19.901968,45.253679],[19.902987,45.253297],[19.903945,45.252612],[19.911845,45.249848],[19.916196,45.246381],[19.916281,45.246083],[19.918205,45.244329],[19.918842,45.243223],[19.919868,45.240789],[19.920543,45.239652],[19.920943,45.238298],[19.92145,45.235277],[19.918133,45.228129],[19.916727,45.22686],[19.915225,45.225014],[19.915239,45.224246],[19.91556,45.223259],[19.917205,45.220776],[19.917755,45.220089],[19.915514,45.21875],[19.914767,45.218163],[19.91165,45.215332],[19.911044,45.215018],[19.911065,45.214862],[19.910966,45.214617],[19.910081,45.213981],[19.910016,45.213685],[19.909844,45.213538],[19.909854,45.213216],[19.909583,45.212618],[19.909554,45.212288],[19.909365,45.21218],[19.909023,45.211692],[19.90803,45.211154],[19.907576,45.210788],[19.906854,45.209885],[19.906462,45.209657],[19.906308,45.209059],[19.905492,45.208944],[19.90445,45.207847],[19.903931,45.20758],[19.902706,45.207267],[19.901736,45.207169],[19.901406,45.206744],[19.899689,45.207119],[19.897817,45.20588]]]]}},
{"type":"Feature","properties":{"slug":"sremska-kamenica","kind":"neighborhood","parent":null,"name":{"sr-Cyrl":"Сремска Каменица","sr-Latn":"Sremska Kamenica","ru":"Сремска-Каменица","en":"Sremska Kamenica"},"aliases":[],"center":[19.83921,45.192074],"source":"osm:relation/9274163"},"geometry":{"type":"MultiPolygon","coordinates":[[[[19.816892,45.199311],[19.817441,45.199785],[19.817298,45.200066],[19.817193,45.200638],[19.817574,45.202115],[19.818045,45.203448],[19.818052,45.204421],[19.81833,45.206589],[19.818312,45.206726],[19.817932,45.207233],[19.817967,45.207709],[19.817893,45.208099],[19.818118,45.208395],[19.81838,45.20857],[19.818538,45.208974],[19.818372,45.209407],[19.817445,45.210549],[19.817104,45.211192],[19.816402,45.211827],[19.816141,45.212369],[19.815874,45.212383],[19.815223,45.212696],[19.815101,45.213017],[19.815305,45.21354],[19.815302,45.214204],[19.815192,45.214424],[19.815029,45.214547],[19.815017,45.214711],[19.815029,45.215171],[19.815228,45.215223],[19.814637,45.215495],[19.814259,45.216428],[19.814136,45.217128],[19.814277,45.217393],[19.813992,45.218054],[19.813958,45.218486],[19.813859,45.218654],[19.81332,45.221255],[19.818894,45.222428],[19.830965,45.224732],[19.832591,45.225315],[19.833719,45.225846],[19.834919,45.226474],[19.836078,45.227308],[19.838504,45.228491],[19.845254,45.231089],[19.846597,45.23183],[19.849672,45.233885],[19.851548,45.231933],[19.851917,45.231349],[19.85257,45.2307],[19.852787,45.230671],[19.853496,45.229761],[19.854064,45.22952],[19.854278,45.22952],[19.856536,45.228288],[19.863463,45.224825],[19.86476,45.220993],[19.86286,45.217214],[19.862139,45.216171],[19.864314,45.213307],[19.86473,45.212905],[19.864793,45.212811],[19.864726,45.212755],[19.865706,45.211711],[19.865762,45.21161],[19.865718,45.211186],[19.866598,45.210505],[19.867113,45.209656],[19.867912,45.207063],[19.870829,45.203595],[19.870642,45.203443],[19.870833,45.203099],[19.86893,45.202545],[19.868333,45.202761],[19.868018,45.202571],[19.866204,45.200812],[19.8661,45.200654],[19.866197,45.200191],[19.865857,45.199752],[19.864558,45.198789],[19.86356,45.19852],[19.864075,45.197596],[19.863161,45.198074],[19.862639,45.198175],[19.862507,45.198125],[19.862407,45.197686],[19.862072,45.197288],[19.861363,45.195443],[19.861241,45.195288],[19.861249,45.194756],[19.860605,45.194773],[19.860204,45.194359],[19.859995,45.193937],[19.860011,45.193654],[19.859589,45.193527],[19.859256,45.193173],[19.858903,45.192943],[19.858435,45.192673],[19.858133,45.192935],[19.857747,45.191079],[19.857881,45.189754],[19.857519,45.189093],[19.857505,45.188932],[19.857733,45.187806],[19.858122,45.186978],[19.860805,45.185132],[19.862672,45.184156],[19.863674,45.183892],[19.864387,45.183851],[19.864694,45.183721],[19.865582,45.183172],[19.865872,45.1828],[19.866583,45.182213],[19.866879,45.181782],[19.867169,45.180834],[19.867544,45.180136],[19.86798,45.179608],[19.868157,45.179145],[19.868194,45.178499],[19.867697,45.177927],[19.867603,45.177262],[19.867777,45.176989],[19.868247,45.176784],[19.868351,45.176591],[19.867829,45.176128],[19.86776,45.17584],[19.867802,45.175669],[19.868339,45.174926],[19.869241,45.174172],[19.869175,45.173869],[19.869226,45.173642],[19.869509,45.173298],[19.870603,45.172582],[19.870629,45.172424],[19.870505,45.172189],[19.869952,45.171769],[19.869759,45.171483],[19.869235,45.171359],[19.869066,45.171238],[19.86948,45.171009],[19.870252,45.170746],[19.870832,45.169974],[19.871513,45.169583],[19.872147,45.168733],[19.872832,45.168162],[19.871964,45.167654],[19.871545,45.167197],[19.871831,45.166509],[19.872114,45.166194],[19.872315,45.165771],[19.872285,45.165409],[19.872608,45.16477],[19.872869,45.164564],[19.873483,45.164376],[19.873978,45.163893],[19.874608,45.163916],[19.874878,45.16385],[19.875478,45.163086],[19.875815,45.162732],[19.876175,45.162526],[19.876375,45.162275],[19.876401,45.16211],[19.87629,45.161814],[19.876047,45.161527],[19.875404,45.161192],[19.874699,45.160503],[19.874274,45.159464],[19.874096,45.159235],[19.874121,45.158708],[19.872643,45.158069],[19.87215,45.158127],[19.871469,45.158821],[19.871184,45.158873],[19.869751,45.158524],[19.869461,45.158183],[19.869318,45.157789],[19.869159,45.157643],[19.869008,45.157625],[19.868762,45.157696],[19.868189,45.158169],[19.867712,45.15842],[19.866515,45.158523],[19.86392,45.158012],[19.86353,45.157779],[19.863131,45.157359],[19.86263,45.157234],[19.861764,45.157453],[19.860249,45.158643],[19.85994,45.158811],[19.859504,45.158825],[19.85922,45.15863],[19.85877,45.157646],[19.858537,45.157434],[19.857509,45.157154],[19.855857,45.157051],[19.855391,45.156848],[19.855016,45.155579],[19.854892,45.155419],[19.854304,45.155],[19.853625,45.154717],[19.852206,45.154432],[19.851024,45.15473],[19.849242,45.154641],[19.848718,45.154495],[19.84832,45.154176],[19.848004,45.153706],[19.847776,45.153642],[19.847069,45.153943],[19.845085,45.1542],[19.84372,45.15498],[19.843144,45.155193],[19.84188,45.155194],[19.841073,45.155008],[19.839893,45.155262],[19.839553,45.155258],[19.839703,45.154645],[19.83963,45.15424],[19.838786,45.153017],[19.838506,45.152805],[19.838053,45.152249],[19.837964,45.151716],[19.837851,45.151505],[19.837542,45.151324],[19.835665,45.151007],[19.833413,45.151867],[19.832778,45.151891],[19.832476,45.151638],[19.832191,45.150938],[19.83195,45.150767],[19.831965,45.150568],[19.831871,45.150419],[19.83151,45.150168],[19.831164,45.150068],[19.829912,45.149907],[19.827559,45.149934],[19.826279,45.149756],[19.825329,45.149852],[19.824611,45.149733],[19.824114,45.149851],[19.823352,45.150746],[19.823231,45.151171],[19.823109,45.152233],[19.822817,45.152741],[19.822267,45.153489],[19.821051,45.154083],[19.820794,45.154492],[19.820571,45.155556],[19.820029,45.156575],[19.819779,45.157789],[19.819296,45.158671],[19.819514,45.160626],[19.819447,45.161283],[19.819593,45.162198],[19.819451,45.163244],[19.819491,45.163466],[19.819897,45.163948],[19.819816,45.164211],[19.818804,45.164989],[19.818325,45.165628],[19.818368,45.166007],[19.818862,45.166924],[19.818838,45.167338],[19.818581,45.167721],[19.818168,45.16805],[19.817742,45.168208],[19.817654,45.168423],[19.817726,45.168526],[19.818448,45.16891],[19.81887,45.169046],[19.81989,45.16995],[19.819947,45.170102],[19.819883,45.170283],[19.819267,45.171179],[19.819182,45.17152],[19.819375,45.172309],[19.819719,45.172792],[19.820313,45.17338],[19.820537,45.174142],[19.820714,45.174426],[19.821903,45.175089],[19.82195,45.175228],[19.821892,45.175594],[19.822023,45.176118],[19.822668,45.17679],[19.822559,45.178014],[19.823349,45.179303],[19.824084,45.180019],[19.82337,45.180154],[19.822031,45.180741],[19.821489,45.180667],[19.820395,45.181163],[19.82,45.181241],[19.81972,45.181474],[19.819624,45.181824],[19.819741,45.182674],[19.819507,45.182969],[19.819309,45.183525],[19.819313,45.184029],[19.819699,45.184391],[19.819393,45.185314],[19.819461,45.186096],[19.820124,45.186601],[19.820302,45.187164],[19.820766,45.187528],[19.820829,45.187841],[19.821011,45.188126],[19.820617,45.189336],[19.820547,45.190157],[19.820757,45.191018],[19.820646,45.191048],[19.820798,45.191298],[19.820274,45.191533],[19.82066,45.192615],[19.82058,45.192761],[19.819943,45.192943],[19.81963,45.193194],[19.819839,45.193821],[19.819687,45.194683],[19.818401,45.194479],[19.818425,45.194924],[19.817557,45.194921],[19.816338,45.195279],[19.81655,45.195606],[19.816214,45.196029],[19.816323,45.19609],[19.816309,45.196259],[19.816379,45.196358],[19.817183,45.196717],[19.816831,45.197821],[19.817277,45.198152],[19.817718,45.198795],[19.816892,45.199311]]]]}},
{"type":"Feature","properties":{"slug":"veternik","kind":"neighborhood","parent":null,"name":{"sr-Cyrl":"Ветерник","sr-Latn":"Veternik","ru":"Ветерник","en":"Veternik"},"aliases":[],"center":[19.755478,45.244597],"source":"osm:relation/9274009"},"geometry":{"type":"MultiPolygon","coordinates":[[[[19.782205,45.224873],[19.762478,45.226207],[19.747018,45.226271],[19.745071,45.226214],[19.743619,45.226081],[19.742108,45.226112],[19.741098,45.233972],[19.740728,45.234478],[19.740532,45.235489],[19.739748,45.237617],[19.735905,45.242692],[19.735814,45.243347],[19.736845,45.246098],[19.736645,45.246058],[19.736746,45.246384],[19.737225,45.254109],[19.739781,45.263228],[19.74028,45.264784],[19.740701,45.266511],[19.741249,45.268179],[19.741645,45.269772],[19.742226,45.269723],[19.743953,45.269067],[19.74535,45.269174],[19.750371,45.267529],[19.752642,45.266541],[19.75815,45.263261],[19.758601,45.263427],[19.759273,45.263089],[19.759944,45.263678],[19.764079,45.261391],[19.772078,45.268395],[19.776172,45.266035],[19.776382,45.26622],[19.776555,45.266127],[19.781889,45.262982],[19.777881,45.260141],[19.77827,45.259762],[19.781128,45.25618],[19.783553,45.253993],[19.784371,45.252913],[19.784519,45.252219],[19.78481,45.251786],[19.785041,45.250988],[19.78503,45.249983],[19.784723,45.247571],[19.784873,45.247158],[19.785317,45.246396],[19.78737,45.244277],[19.78749,45.243319],[19.787631,45.243363],[19.787527,45.2431],[19.77791,45.24367],[19.774728,45.244918],[19.774268,45.242257],[19.774179,45.241852],[19.774023,45.241605],[19.772551,45.240402],[19.772786,45.240218],[19.765536,45.233423],[19.764169,45.230914],[19.763986,45.230076],[19.76594,45.229886],[19.768387,45.229525],[19.770702,45.229113],[19.773073,45.228562],[19.774839,45.228297],[19.780042,45.22786],[19.781002,45.227722],[19.781385,45.227593],[19.782509,45.227495],[19.78609,45.226664],[19.787987,45.226461],[19.788872,45.226274],[19.78886,45.226198],[19.788956,45.226267],[19.789166,45.226162],[19.790973,45.2258],[19.791957,45.225516],[19.792548,45.225681],[19.795597,45.225428],[19.796842,45.225161],[19.797313,45.225134],[19.799059,45.224582],[19.800355,45.2245],[19.800315,45.224602],[19.800614,45.224594],[19.801615,45.224436],[19.802919,45.22414],[19.803243,45.223868],[19.805692,45.222929],[19.806109,45.222647],[19.806586,45.222497],[19.806995,45.222514],[19.807748,45.222293],[19.808836,45.22227],[19.812257,45.222953],[19.812915,45.223154],[19.813396,45.220889],[19.811447,45.220309],[19.809274,45.220084],[19.809017,45.21986],[19.807799,45.219632],[19.807177,45.219895],[19.805645,45.219757],[19.803624,45.219879],[19.802477,45.220077],[19.799508,45.221383],[19.798755,45.221639],[19.798016,45.221639],[19.797204,45.22175],[19.793871,45.222401],[19.792733,45.222487],[19.791439,45.222697],[19.791066,45.222612],[19.789775,45.223342],[19.786308,45.224232],[19.782782,45.224939],[19.782205,45.224873]]]]}},
{"type":"Feature","properties":{"slug":"futog","kind":"neighborhood","parent":null,"name":{"sr-Cyrl":"Футог","sr-Latn":"Futog","ru":"Футог","en":"Futog"},"aliases":[],"center":[19.683891,45.281602],"source":"osm:relation/9273357"},"geometry":{"type":"MultiPolygon","coordinates":[[[[19.630475,45.294674],[19.63041,45.297797],[19.627871,45.301341],[19.622975,45.309988],[19.622404,45.313259],[19.620261,45.3219],[19.625706,45.3213],[19.625781,45.321775],[19.630286,45.321392],[19.631069,45.32064],[19.669583,45.310111],[19.672923,45.315015],[19.674643,45.32035],[19.674996,45.320634],[19.676178,45.324771],[19.670584,45.335709],[19.671721,45.337832],[19.672217,45.338602],[19.672808,45.340181],[19.675583,45.338792],[19.676726,45.338465],[19.676723,45.338114],[19.680715,45.336103],[19.684985,45.333737],[19.687905,45.332532],[19.688777,45.331979],[19.688976,45.331561],[19.692525,45.329833],[19.693909,45.329455],[19.695275,45.328582],[19.697466,45.327481],[19.698705,45.32662],[19.699959,45.32593],[19.701244,45.325308],[19.701965,45.325094],[19.701934,45.324929],[19.702829,45.324501],[19.707357,45.321831],[19.712431,45.319355],[19.712441,45.319183],[19.717556,45.316523],[19.720586,45.315144],[19.721431,45.314659],[19.722141,45.314629],[19.721911,45.314402],[19.722726,45.314093],[19.72377,45.313448],[19.723857,45.313496],[19.723976,45.313434],[19.723852,45.313186],[19.730969,45.30934],[19.731944,45.309278],[19.729909,45.307844],[19.728153,45.306739],[19.725945,45.28512],[19.734725,45.280174],[19.739083,45.277611],[19.744402,45.28218],[19.744891,45.282432],[19.758181,45.285372],[19.768451,45.283499],[19.76855,45.28373],[19.774219,45.282612],[19.779639,45.281687],[19.780017,45.281517],[19.779694,45.28134],[19.779391,45.280992],[19.767803,45.270791],[19.772078,45.268395],[19.764079,45.261391],[19.759944,45.263678],[19.759273,45.263089],[19.758601,45.263427],[19.75815,45.263261],[19.752642,45.266541],[19.750371,45.267529],[19.74535,45.269174],[19.743953,45.269067],[19.742226,45.269723],[19.741645,45.269772],[19.741249,45.268179],[19.740701,45.266511],[19.74028,45.264784],[19.739781,45.263228],[19.737225,45.254109],[19.736746,45.246384],[19.736645,45.246058],[19.736845,45.246098],[19.735814,45.243347],[19.735905,45.242692],[19.739748,45.237617],[19.740532,45.235489],[19.740728,45.234478],[19.741098,45.233972],[19.742108,45.226112],[19.741081,45.226189],[19.739259,45.22648],[19.736517,45.227102],[19.729581,45.228898],[19.724262,45.22956],[19.719479,45.230335],[19.715295,45.231185],[19.71206,45.231164],[19.7115,45.231061],[19.709139,45.230304],[19.705429,45.229747],[19.701912,45.228652],[19.699351,45.22773],[19.69752,45.226953],[19.696161,45.226748],[19.695991,45.225707],[19.692177,45.22588],[19.687028,45.225113],[19.683328,45.22441],[19.682055,45.224359],[19.680134,45.224095],[19.675874,45.223253],[19.673458,45.223607],[19.670721,45.223645],[19.667334,45.224022],[19.666399,45.223976],[19.662821,45.223266],[19.660372,45.222924],[19.651822,45.239702],[19.650851,45.24189],[19.650432,45.243908],[19.646514,45.259461],[19.646286,45.260947],[19.645636,45.262643],[19.645453,45.262623],[19.642886,45.266127],[19.636218,45.277964],[19.635481,45.282249],[19.634623,45.286006],[19.630475,45.294674]]]]}}]}
